[{"OBJECT_NAME":"STARLINK-36734","OBJECT_ID":"2026-039C","EPOCH":"2026-03-14T14:00:01.999872","MEAN_MOTION":15.65317984,"ECCENTRICITY":0.00011637,"INCLINATION":42.9991,"RA_OF_ASC_NODE":25.2244,"ARG_OF_PERICENTER":268.5143,"MEAN_ANOMALY":209.7178,"EPHEMERIS_TYPE":0,"CLASSIFICATION_TYPE":"U","NORAD_CAT_ID":67988,"ELEMENT_SET_NO":999,"REV_AT_EPOCH":366,"BSTAR":-0.021718914,"MEAN_MOTION_DOT":-0.01960058,"MEAN_MOTION_DDOT":0},{"OBJECT_NAME":"STARLINK-36957","OBJECT_ID":"2026-039D","EPOCH":"2026-03-14T06:55:04.840608","MEAN_MOTION":15.82141925,"ECCENTRICITY":0.00016977,"INCLINATION":42.9988,"RA_OF_ASC_NODE":26.7224,"ARG_OF_PERICENTER":267.002,"MEAN_ANOMALY":93.0658,"EPHEMERIS_TYPE":0,"CLASSIFICATION_TYPE":"U","NORAD_CAT_ID":67989,"ELEMENT_SET_NO":999,"REV_AT_EPOCH":236,"BSTAR":0.001793365,"MEAN_MOTION_DOT":0.00397269,"MEAN_MOTION_DDOT":0},{"OBJECT_NAME":"STARLINK-36951","OBJECT_ID":"2026-039E","EPOCH":"2026-03-13T21:48:40.227552","MEAN_MOTION":15.8114175,"ECCENTRICITY":0.00025699,"INCLINATION":42.999,"RA_OF_ASC_NODE":29.0384,"ARG_OF_PERICENTER":187.4316,"MEAN_ANOMALY":172.6517,"EPHEMERIS_TYPE":0,"CLASSIFICATION_TYPE":"U","NORAD_CAT_ID":67990,"ELEMENT_SET_NO":999,"REV_AT_EPOCH":230,"BSTAR":-0.0010415952,"MEAN_MOTION_DOT":-0.00206199,"MEAN_MOTION_DDOT":0},{"OBJECT_NAME":"STARLINK-36941","OBJECT_ID":"2026-039F","EPOCH":"2026-03-14T14:00:01.999872","MEAN_MOTION":15.64965961,"ECCENTRICITY":0.00011326,"INCLINATION":42.9994,"RA_OF_ASC_NODE":25.2034,"ARG_OF_PERICENTER":266.9236,"MEAN_ANOMALY":219.085,"EPHEMERIS_TYPE":0,"CLASSIFICATION_TYPE":"U","NORAD_CAT_ID":67991,"ELEMENT_SET_NO":999,"REV_AT_EPOCH":366,"BSTAR":-0.021970931,"MEAN_MOTION_DOT":-0.019554,"MEAN_MOTION_DDOT":0},{"OBJECT_NAME":"STARLINK-36950","OBJECT_ID":"2026-039G","EPOCH":"2026-03-14T14:00:01.999872","MEAN_MOTION":15.70455714,"ECCENTRICITY":0.000131,"INCLINATION":42.9996,"RA_OF_ASC_NODE":25.0246,"ARG_OF_PERICENTER":264.1215,"MEAN_ANOMALY":293.8182,"EPHEMERIS_TYPE":0,"CLASSIFICATION_TYPE":"U","NORAD_CAT_ID":67992,"ELEMENT_SET_NO":999,"REV_AT_EPOCH":366,"BSTAR":-0.017620526,"MEAN_MOTION_DOT":-0.01966238,"MEAN_MOTION_DDOT":0},{"OBJECT_NAME":"STARLINK-36975","OBJECT_ID":"2026-039H","EPOCH":"2026-03-14T14:00:01.999872","MEAN_MOTION":15.71750072,"ECCENTRICITY":0.00012826,"INCLINATION":42.9997,"RA_OF_ASC_NODE":24.9832,"ARG_OF_PERICENTER":257.1011,"MEAN_ANOMALY":317.2742,"EPHEMERIS_TYPE":0,"CLASSIFICATION_TYPE":"U","NORAD_CAT_ID":67993,"ELEMENT_SET_NO":999,"REV_AT_EPOCH":366,"BSTAR":-0.016712079,"MEAN_MOTION_DOT":-0.0197001,"MEAN_MOTION_DDOT":0},{"OBJECT_NAME":"STARLINK-36993","OBJECT_ID":"2026-039J","EPOCH":"2026-03-14T06:49:41.397888","MEAN_MOTION":15.82065295,"ECCENTRICITY":0.0001428,"INCLINATION":42.999,"RA_OF_ASC_NODE":26.6919,"ARG_OF_PERICENTER":276.7344,"MEAN_ANOMALY":83.3365,"EPHEMERIS_TYPE":0,"CLASSIFICATION_TYPE":"U","NORAD_CAT_ID":67994,"ELEMENT_SET_NO":999,"REV_AT_EPOCH":236,"BSTAR":0.00091496353,"MEAN_MOTION_DOT":0.00197024,"MEAN_MOTION_DDOT":0},{"OBJECT_NAME":"STARLINK-36968","OBJECT_ID":"2026-039K","EPOCH":"2026-03-14T14:00:01.999872","MEAN_MOTION":15.68277203,"ECCENTRICITY":0.00012693,"INCLINATION":42.9994,"RA_OF_ASC_NODE":25.0412,"ARG_OF_PERICENTER":259.3484,"MEAN_ANOMALY":291.9181,"EPHEMERIS_TYPE":0,"CLASSIFICATION_TYPE":"U","NORAD_CAT_ID":67995,"ELEMENT_SET_NO":999,"REV_AT_EPOCH":366,"BSTAR":-0.019298429,"MEAN_MOTION_DOT":-0.01965563,"MEAN_MOTION_DDOT":0},{"OBJECT_NAME":"STARLINK-36979","OBJECT_ID":"2026-039L","EPOCH":"2026-03-14T08:19:30.673056","MEAN_MOTION":15.82156564,"ECCENTRICITY":0.00022182,"INCLINATION":42.9991,"RA_OF_ASC_NODE":26.2983,"ARG_OF_PERICENTER":239.4676,"MEAN_ANOMALY":120.5977,"EPHEMERIS_TYPE":0,"CLASSIFICATION_TYPE":"U","NORAD_CAT_ID":67996,"ELEMENT_SET_NO":999,"REV_AT_EPOCH":237,"BSTAR":0.001675939,"MEAN_MOTION_DOT":0.00370304,"MEAN_MOTION_DDOT":0},{"OBJECT_NAME":"STARLINK-36994","OBJECT_ID":"2026-039M","EPOCH":"2026-03-14T14:00:01.999872","MEAN_MOTION":15.77842076,"ECCENTRICITY":0.00015296,"INCLINATION":42.9998,"RA_OF_ASC_NODE":24.8342,"ARG_OF_PERICENTER":254.0007,"MEAN_ANOMALY":19.7535,"EPHEMERIS_TYPE":0,"CLASSIFICATION_TYPE":"U","NORAD_CAT_ID":67997,"ELEMENT_SET_NO":999,"REV_AT_EPOCH":366,"BSTAR":-0.012706031,"MEAN_MOTION_DOT":-0.0192155,"MEAN_MOTION_DDOT":0},{"OBJECT_NAME":"STARLINK-36988","OBJECT_ID":"2026-039N","EPOCH":"2026-03-14T08:17:50.320320","MEAN_MOTION":15.80506982,"ECCENTRICITY":0.00035937,"INCLINATION":42.9986,"RA_OF_ASC_NODE":26.2881,"ARG_OF_PERICENTER":271.757,"MEAN_ANOMALY":88.2889,"EPHEMERIS_TYPE":0,"CLASSIFICATION_TYPE":"U","NORAD_CAT_ID":67998,"ELEMENT_SET_NO":999,"REV_AT_EPOCH":237,"BSTAR":-0.0025400014,"MEAN_MOTION_DOT":-0.00473098,"MEAN_MOTION_DDOT":0},{"OBJECT_NAME":"STARLINK-36926","OBJECT_ID":"2026-039P","EPOCH":"2026-03-14T14:00:01.999872","MEAN_MOTION":15.7803189,"ECCENTRICITY":0.00015687,"INCLINATION":42.9997,"RA_OF_ASC_NODE":24.822,"ARG_OF_PERICENTER":265.0212,"MEAN_ANOMALY":13.6593,"EPHEMERIS_TYPE":0,"CLASSIFICATION_TYPE":"U","NORAD_CAT_ID":67999,"ELEMENT_SET_NO":999,"REV_AT_EPOCH":366,"BSTAR":-0.012598381,"MEAN_MOTION_DOT":-0.01921804,"MEAN_MOTION_DDOT":0},{"OBJECT_NAME":"STARLINK-36931","OBJECT_ID":"2026-039Q","EPOCH":"2026-03-14T08:14:07.118016","MEAN_MOTION":15.82156363,"ECCENTRICITY":0.00019187,"INCLINATION":42.9989,"RA_OF_ASC_NODE":26.2678,"ARG_OF_PERICENTER":251.4121,"MEAN_ANOMALY":108.6542,"EPHEMERIS_TYPE":0,"CLASSIFICATION_TYPE":"U","NORAD_CAT_ID":68000,"ELEMENT_SET_NO":999,"REV_AT_EPOCH":237,"BSTAR":0.0017580311,"MEAN_MOTION_DOT":0.0038933,"MEAN_MOTION_DDOT":0},{"OBJECT_NAME":"STARLINK-36903","OBJECT_ID":"2026-039R","EPOCH":"2026-03-14T14:00:01.999872","MEAN_MOTION":15.77916591,"ECCENTRICITY":0.00015846,"INCLINATION":42.9997,"RA_OF_ASC_NODE":24.8013,"ARG_OF_PERICENTER":256.5954,"MEAN_ANOMALY":30.2357,"EPHEMERIS_TYPE":0,"CLASSIFICATION_TYPE":"U","NORAD_CAT_ID":68001,"ELEMENT_SET_NO":999,"REV_AT_EPOCH":366,"BSTAR":-0.012706632,"MEAN_MOTION_DOT":-0.01927324,"MEAN_MOTION_DDOT":0},{"OBJECT_NAME":"STARLINK-36898","OBJECT_ID":"2026-039S","EPOCH":"2026-03-14T08:10:53.376384","MEAN_MOTION":15.82125495,"ECCENTRICITY":0.00012496,"INCLINATION":42.9988,"RA_OF_ASC_NODE":26.2478,"ARG_OF_PERICENTER":229.9232,"MEAN_ANOMALY":130.1531,"EPHEMERIS_TYPE":0,"CLASSIFICATION_TYPE":"U","NORAD_CAT_ID":68002,"ELEMENT_SET_NO":999,"REV_AT_EPOCH":237,"BSTAR":0.0015837523,"MEAN_MOTION_DOT":0.0034851,"MEAN_MOTION_DDOT":0},{"OBJECT_NAME":"STARLINK-36862","OBJECT_ID":"2026-039T","EPOCH":"2026-03-14T14:00:01.999872","MEAN_MOTION":15.78846681,"ECCENTRICITY":0.00016868,"INCLINATION":42.9997,"RA_OF_ASC_NODE":24.7507,"ARG_OF_PERICENTER":257.6415,"MEAN_ANOMALY":49.173,"EPHEMERIS_TYPE":0,"CLASSIFICATION_TYPE":"U","NORAD_CAT_ID":68003,"ELEMENT_SET_NO":999,"REV_AT_EPOCH":366,"BSTAR":-0.012220074,"MEAN_MOTION_DOT":-0.01933223,"MEAN_MOTION_DDOT":0}]
