STARLINK-36734          
1 67988U 26039C   26073.58335648 -.01960058  00000+0 -21719-1 0  9999
2 67988  42.9991  25.2244 0001163 268.5143 209.7178 15.65317984  3661
STARLINK-36957          
1 67989U 26039D   26073.28825047  .00397269  00000+0  17934-2 0  9994
2 67989  42.9988  26.7224 0001697 267.0020  93.0658 15.82141925  2364
STARLINK-36951          
1 67990U 26039E   26072.90879893 -.00206199  00000+0 -10416-2 0  9993
2 67990  42.9990  29.0384 0002569 187.4316 172.6517 15.81141750  2301
STARLINK-36941          
1 67991U 26039F   26073.58335648 -.01955400  00000+0 -21971-1 0  9998
2 67991  42.9994  25.2034 0001132 266.9236 219.0850 15.64965961  3660
STARLINK-36950          
1 67992U 26039G   26073.58335648 -.01966238  00000+0 -17621-1 0  9997
2 67992  42.9996  25.0246 0001310 264.1215 293.8182 15.70455714  3666
STARLINK-36975          
1 67993U 26039H   26073.58335648 -.01970010  00000+0 -16712-1 0  9991
2 67993  42.9997  24.9832 0001282 257.1011 317.2742 15.71750072  3660
STARLINK-36993          
1 67994U 26039J   26073.28450692  .00197024  00000+0  91496-3 0  9993
2 67994  42.9990  26.6919 0001428 276.7344  83.3365 15.82065295  2363
STARLINK-36968          
1 67995U 26039K   26073.58335648 -.01965563  00000+0 -19298-1 0  9992
2 67995  42.9994  25.0412 0001269 259.3484 291.9181 15.68277203  3669
STARLINK-36979          
1 67996U 26039L   26073.34688279  .00370304  00000+0  16759-2 0  9998
2 67996  42.9991  26.2983 0002218 239.4676 120.5977 15.82156564  2379
STARLINK-36994          
1 67997U 26039M   26073.58335648 -.01921550  00000+0 -12706-1 0  9999
2 67997  42.9998  24.8342 0001529 254.0007  19.7535 15.77842076  3661
STARLINK-36988          
1 67998U 26039N   26073.34572130 -.00473098  00000+0 -25400-2 0  9997
2 67998  42.9986  26.2881 0003593 271.7570  88.2889 15.80506982  2374
STARLINK-36926          
1 67999U 26039P   26073.58335648 -.01921804  00000+0 -12598-1 0  9992
2 67999  42.9997  24.8220 0001568 265.0212  13.6593 15.78031890  3662
STARLINK-36931          
1 68000U 26039Q   26073.34313794  .00389330  00000+0  17580-2 0  9994
2 68000  42.9989  26.2678 0001918 251.4121 108.6542 15.82156363  2371
STARLINK-36903          
1 68001U 26039R   26073.58335648 -.01927324  00000+0 -12707-1 0  9992
2 68001  42.9997  24.8013 0001584 256.5954  30.2357 15.77916591  3665
STARLINK-36898          
1 68002U 26039S   26073.34089556  .00348510  00000+0  15838-2 0  9991
2 68002  42.9988  26.2478 0001249 229.9232 130.1531 15.82125495  2370
STARLINK-36862          
1 68003U 26039T   26073.58335648 -.01933223  00000+0 -12220-1 0  9999
2 68003  42.9997  24.7507 0001686 257.6415  49.1730 15.78846681  3668
